OBJECT_NAME,OBJECT_ID,EPOCH,MEAN_MOTION,ECCENTRICITY,INCLINATION,RA_OF_ASC_NODE,ARG_OF_PERICENTER,MEAN_ANOMALY,EPHEMERIS_TYPE,CLASSIFICATION_TYPE,NORAD_CAT_ID,ELEMENT_SET_NO,REV_AT_EPOCH,BSTAR,MEAN_MOTION_DOT,MEAN_MOTION_DDOT
ICEYE-X39,2024-149CG,2026-07-14T16:40:06.022560,15.00070846,.00069804,97.6789,272.3471,48.2807,311.9012,0,U,60546,999,10424,.19017714E-3,.2311E-4,0
UMBRA-10,2024-149CH,2026-07-14T19:26:33.463392,15.18843070,.00016904,97.6982,283.5339,167.9758,192.1517,0,U,60547,999,10492,.42072627E-3,.8697E-4,0
ICEYE-X33,2024-149CJ,2026-07-14T18:28:32.706336,15.00882745,.00018733,97.7366,274.7720,75.6898,284.4534,0,U,60548,999,10434,.23057574E-3,.2874E-4,0
ICEYE-X40,2024-149CK,2026-07-14T18:09:02.897856,14.98068753,.00039719,97.6797,271.8091,7.7825,352.3459,0,U,60549,999,10420,.1247155E-3,.1417E-4,0
SATELIOT_1,2024-149CL,2026-07-14T17:53:04.255296,14.98161700,.00056925,97.6732,271.1848,353.8107,6.3044,0,U,60550,999,10419,.97491641E-4,.1098E-4,0
BRO-14,2024-149CM,2026-07-14T17:58:08.018688,14.96235048,.00067621,97.6864,271.0310,19.2732,340.8744,0,U,60551,999,10411,.82852733E-4,.878E-5,0
SATELIOT_3,2024-149CN,2026-07-14T18:54:34.031232,14.98163294,.00051037,97.6820,272.0448,6.6871,353.4418,0,U,60552,999,10421,.34552645E-4,.352E-5,0
BRO-15,2024-149CP,2026-07-14T17:33:11.612160,14.96221395,.0007828,97.6792,270.5901,5.9405,354.1908,0,U,60553,999,10412,.25505437E-4,.231E-5,0
UM5-RIBAT,2024-149CQ,2026-07-14T19:14:15.559008,15.01217222,.00007555,97.6607,273.2275,354.0748,6.0468,0,U,60554,999,10433,.10058758E-3,.1232E-4,0
UM5-EOSAT,2024-149CR,2026-07-14T23:00:51.391296,15.01727849,.00091275,97.6776,274.3839,36.2286,323.9555,0,U,60555,999,10438,.15380533E-3,.1942E-4,0
LASARSAT,2024-247Q,2026-07-14T22:22:35.051232,15.48033197,.0007354,44.9739,106.1046,164.5391,195.5725,0,U,62391,999,8761,.40881166E-3,.21592E-3,0
CROCUBE,2024-247T,2026-07-14T10:37:54.274656,15.50156590,.00074582,44.9723,105.7215,167.1731,192.9351,0,U,62394,999,8757,.45083664E-3,.25737E-3,0
TEVEL2-4,2025-052D,2026-07-14T16:33:46.673856,15.35555371,.00035815,97.3873,92.1411,52.7606,307.3964,0,U,63213,999,7433,.30168399E-3,.10349E-3,0
TEVEL2-5,2025-052E,2026-07-14T17:07:55.387200,15.35369597,.00036386,97.3870,92.1047,54.2454,305.9128,0,U,63214,999,7433,.31805601E-3,.10851E-3,0
TEVEL2-6,2025-052F,2026-07-14T15:52:44.170176,15.35331616,.00036805,97.3876,92.0373,56.3552,303.8042,0,U,63215,999,7432,.32053588E-3,.10923E-3,0
TEVEL2-1,2025-052H,2026-07-14T15:14:51.352512,15.34761887,.0004319,97.3847,91.6018,61.6960,298.4718,0,U,63217,999,7430,.2955724E-3,.9885E-4,0
TEVEL2-3,2025-052J,2026-07-14T16:39:29.816640,15.34825600,.00040492,97.3851,91.6861,62.6688,297.4967,0,U,63218,999,7431,.29478969E-3,.9878E-4,0
TEVEL2-2,2025-052K,2026-07-14T23:04:28.358112,15.34779518,.00043376,97.3841,91.9311,61.0263,299.1415,0,U,63219,999,7435,.30398313E-3,.10174E-3,0
TEVEL2-9,2025-052AD,2026-07-14T15:34:31.027872,15.32721747,.00077199,97.3910,90.9324,58.9177,301.2822,0,U,63237,999,7423,.30513311E-3,.9574E-4,0
TEVEL2-7,2025-052AE,2026-07-14T16:41:17.399328,15.32406537,.00077856,97.3908,90.8827,58.0835,302.1163,0,U,63238,999,7423,.29429637E-3,.914E-4,0
TEVEL2-8,2025-052AF,2026-07-14T16:53:33.302688,15.32392229,.0007827,97.3909,90.8675,59.1574,301.0437,0,U,63239,999,7423,.29290815E-3,.9092E-4,0
FORESAIL-1 PRIME,2025-276DS,2026-07-14T17:35:38.715072,15.18936030,.00029096,97.4193,268.5019,45.5776,314.5696,0,U,66778,999,3458,.12593423E-3,.2563E-4,0
